ONEWEB-0578             
1 56067U 23043X   24352.57550938  .00000064  00000+0  12246-3 0  9991
2 56067  87.9294 352.8735 0001955  92.0208 268.1150 13.21823313 86025
ONEWEB-0579             
1 56068U 23043Y   24352.56604327  .00000183  00000+0  41197-3 0  9992
2 56068  87.9288 352.8671 0001542  78.7515 281.3792 13.21827512 86037
ONEWEB-0581             
1 56069U 23043Z   24352.50414447  .00000181  00000+0  43914-3 0  9996
2 56069  87.9079 337.7146 0002067  71.8613 288.2743 13.16595413 87029
ONEWEB-0609             
1 56070U 23043AA  24352.55973912  .00000014  00000+0  36595-5 0  9994
2 56070  87.9069   8.0461 0001702  94.8345 265.2979 13.15549123 84568
ONEWEB-0613             
1 56071U 23043AB  24352.55498025  .00000020  00000+0  17787-4 0  9990
2 56071  87.9071   8.0504 0001475  87.5830 272.5470 13.15551093 84561
ONEWEB-0630             
1 56072U 23043AC  24352.55023994 -.00000037  00000+0 -13199-3 0  9992
2 56072  87.9070   8.0357 0001464  90.2768 269.8530 13.15549086 84550
ONEWEB-0632             
1 56073U 23043AD  24352.54548249 -.00000093  00000+0 -28236-3 0  9997
2 56073  87.9069   8.0559 0001881  83.4296 276.7048 13.15550025 84552
ONEWEB-0633             
1 56074U 23043AE  24352.53913782 -.00000104  00000+0 -31038-3 0  9992
2 56074  87.9065   8.0319 0001321  96.9736 263.1544 13.15547277 84534
